{
  "norad_id": 58938,
  "name": "STARLINK-31377",
  "history": [
    {
      "epoch": "2026-03-28T16:35:24.368928Z",
      "apogee_km": 476.0151894546334,
      "perigee_km": 474.461940416596,
      "latitude_deg": 9.455911907118722e-06,
      "longitude_deg": 146.6755027014248,
      "height_km": 476.3840616149979,
      "semi_major_axis_km": 6853.375564935614,
      "eccentricity": 0.00011332,
      "inclination_deg": 53.1599,
      "raan_deg": 221.6351,
      "arg_perigee_deg": 108.5583,
      "mean_anomaly_deg": 251.5541,
      "mean_motion_rev_day": 15.30192131
    },
    {
      "epoch": "2026-03-29T01:59:43.754784Z",
      "apogee_km": 476.0007453364633,
      "perigee_km": 474.48614825772165,
      "latitude_deg": -2.2619371043640997e-05,
      "longitude_deg": 3.3878388909740687,
      "height_km": 476.4524887170607,
      "semi_major_axis_km": 6853.380446797092,
      "eccentricity": 0.0001105,
      "inclination_deg": 53.1601,
      "raan_deg": 219.8145,
      "arg_perigee_deg": 114.2144,
      "mean_anomaly_deg": 245.8972,
      "mean_motion_rev_day": 15.30190496
    },
    {
      "epoch": "2026-03-30T01:30:32.069952Z",
      "apogee_km": 475.9814220984699,
      "perigee_km": 474.5223356061624,
      "latitude_deg": -4.525007702512664e-05,
      "longitude_deg": 5.171647485397766,
      "height_km": 476.36053957667315,
      "semi_major_axis_km": 6853.388878852315,
      "eccentricity": 0.00010645,
      "inclination_deg": 53.1592,
      "raan_deg": 215.2653,
      "arg_perigee_deg": 106.7568,
      "mean_anomaly_deg": 253.3549,
      "mean_motion_rev_day": 15.30187672
    },
    {
      "epoch": "2026-03-30T12:28:54.509376Z",
      "apogee_km": 476.0408767190711,
      "perigee_km": 474.44911021726784,
      "latitude_deg": 3.854531463280077e-05,
      "longitude_deg": -161.9939281393081,
      "height_km": 476.291615149165,
      "semi_major_axis_km": 6853.381993468169,
      "eccentricity": 0.00011613,
      "inclination_deg": 53.1615,
      "raan_deg": 213.1438,
      "arg_perigee_deg": 100.7332,
      "mean_anomaly_deg": 259.38,
      "mean_motion_rev_day": 15.30189978
    },
    {
      "epoch": "2026-03-30T17:11:04.031232Z",
      "apogee_km": 476.03196911932537,
      "perigee_km": 474.4569249951637,
      "latitude_deg": 6.200336204617021e-07,
      "longitude_deg": 126.36293866686181,
      "height_km": 476.29397189134414,
      "semi_major_axis_km": 6853.381447057244,
      "eccentricity": 0.00011491,
      "inclination_deg": 53.1607,
      "raan_deg": 212.2335,
      "arg_perigee_deg": 101.0683,
      "mean_anomaly_deg": 259.0447,
      "mean_motion_rev_day": 15.30190161
    },
    {
      "epoch": "2026-03-31T07:17:32.201088Z",
      "apogee_km": 475.9510415404611,
      "perigee_km": 474.5008699390264,
      "latitude_deg": -2.4490107195271444e-06,
      "longitude_deg": -88.56442504832525,
      "height_km": 476.2841143376186,
      "semi_major_axis_km": 6853.3629557397435,
      "eccentricity": 0.0001058,
      "inclination_deg": 53.1607,
      "raan_deg": 209.5029,
      "arg_perigee_deg": 102.7229,
      "mean_anomaly_deg": 257.389,
      "mean_motion_rev_day": 15.30196354
    }
  ]
}